[{"OBJECT_NAME":"SEEDS II (CO-66)","OBJECT_ID":"2008-021J","EPOCH":"2026-03-09T22:06:22.421376","MEAN_MOTION":15.29097236,"ECCENTRICITY":0.00014475,"INCLINATION":97.7519,"RA_OF_ASC_NODE":62.3611,"ARG_OF_PERICENTER":359.2618,"MEAN_ANOMALY":0.8619,"EPHEMERIS_TYPE":0,"CLASSIFICATION_TYPE":"U","NORAD_CAT_ID":32791,"ELEMENT_SET_NO":999,"REV_AT_EPOCH":97210,"BSTAR":0.00084213052,"MEAN_MOTION_DOT":0.00023758,"MEAN_MOTION_DDOT":0},{"OBJECT_NAME":"STARLINK-36063","OBJECT_ID":"2025-270U","EPOCH":"2026-03-09T00:11:02.414112","MEAN_MOTION":15.27597926,"ECCENTRICITY":5.016e-5,"INCLINATION":42.9991,"RA_OF_ASC_NODE":59.8441,"ARG_OF_PERICENTER":247.3094,"MEAN_ANOMALY":112.7705,"EPHEMERIS_TYPE":0,"CLASSIFICATION_TYPE":"U","NORAD_CAT_ID":66606,"ELEMENT_SET_NO":999,"REV_AT_EPOCH":1760,"BSTAR":0.00082352276,"MEAN_MOTION_DOT":0.00022481,"MEAN_MOTION_DDOT":0}]
